[{"OBJECT_NAME":"AE3VA","OBJECT_ID":"2025-135AM","EPOCH":"2026-03-09T20:48:55.147680","MEAN_MOTION":14.95813781,"ECCENTRICITY":0.00020298,"INCLINATION":97.7553,"RA_OF_ASC_NODE":184.5516,"ARG_OF_PERICENTER":209.3978,"MEAN_ANOMALY":150.7129,"EPHEMERIS_TYPE":0,"CLASSIFICATION_TYPE":"U","NORAD_CAT_ID":64563,"ELEMENT_SET_NO":999,"REV_AT_EPOCH":3908,"BSTAR":0.00090702727,"MEAN_MOTION_DOT":0.00010077,"MEAN_MOTION_DDOT":0},{"OBJECT_NAME":"CZ-6A DEB","OBJECT_ID":"2024-140TY","EPOCH":"2026-03-09T15:25:48.532512","MEAN_MOTION":14.77098477,"ECCENTRICITY":0.0162256,"INCLINATION":89.1158,"RA_OF_ASC_NODE":288.8548,"ARG_OF_PERICENTER":182.348,"MEAN_ANOMALY":177.7001,"EPHEMERIS_TYPE":0,"CLASSIFICATION_TYPE":"U","NORAD_CAT_ID":61311,"ELEMENT_SET_NO":999,"REV_AT_EPOCH":8223,"BSTAR":0.00066942,"MEAN_MOTION_DOT":5.907e-5,"MEAN_MOTION_DDOT":0}]
